IRIDIUM 124             
1 42810U 17039H   26073.62407674  .00000434  00000+0  12295-3 0  9991
2 42810  86.4527 329.9155 0002064  85.7117 274.4320 14.43278996461471
IRIDIUM 128             
1 42811U 17039J   26073.46350358  .00000044  00000+0  85106-5 0  9990
2 42811  86.3918  64.7459 0002163  94.5799 265.5644 14.34217631456406
IRIDIUM 121             
1 42812U 17039K   26073.35225690 -.00000038  00000+0 -20791-4 0  9992
2 42812  86.3984  33.2890 0002154  88.0944 272.0498 14.34217245456232
IRIDIUM 133             
1 42955U 17061A   26073.49521638  .00000077  00000+0  20367-4 0  9991
2 42955  86.3920  64.8481 0002173  90.2742 269.8703 14.34217904441204
IRIDIUM 100             
1 42956U 17061B   26073.48887355  .00000040  00000+0  73250-5 0  9992
2 42956  86.3918  64.7716 0002139  89.1970 270.9471 14.34217688441208
IRIDIUM 122             
1 42957U 17061C   26073.45715902  .00000044  00000+0  87320-5 0  9995
2 42957  86.3915  64.7847 0002069  87.9993 272.1440 14.34217590441206
IRIDIUM 129             
1 42958U 17061D   26073.48253045  .00000080  00000+0  21605-4 0  9997
2 42958  86.3919  64.8404 0002411  82.7132 277.4337 14.34218072441221
IRIDIUM 119             
1 42959U 17061E   26073.52058056  .00000196  00000+0  62984-4 0  9991
2 42959  86.3919  64.8196 0002142  84.9325 275.2115 14.34219998441249
IRIDIUM 107             
1 42960U 17061F   26073.46984454  .00000011  00000+0 -31749-5 0  9999
2 42960  86.3919  64.8619 0001745  90.8246 269.3149 14.34217538441246
IRIDIUM 132             
1 42961U 17061G   26073.54595624  .00000079  00000+0  21242-4 0  9995
2 42961  86.3919  64.8099 0002134  90.5328 269.6112 14.34217921441250
IRIDIUM 136             
1 42962U 17061H   26073.50790094  .00000010  00000+0 -35790-5 0  9990
2 42962  86.3922  64.8324 0002001  86.6589 273.4836 14.34217515441260
IRIDIUM 139             
1 42963U 17061J   26073.44447553  .00000035  00000+0  53028-5 0  9993
2 42963  86.3922  64.9192 0002139  90.7702 269.3739 14.34217772441261
IRIDIUM 125             
1 42964U 17061K   26073.50155710  .00000030  00000+0  38212-5 0  9995
2 42964  86.3925  64.9548 0001729  77.6511 282.4878 14.34217724441285
IRIDIUM 135             
1 43070U 17083A   26073.33614470  .00000081  00000+0  21725-4 0  9998
2 43070  86.4028   1.6542 0002191  85.2174 274.9272 14.34216278430550
IRIDIUM 138             
1 43071U 17083B   26073.50105450  .00000151  00000+0  46786-4 0  9993
2 43071  86.4042   1.2666 0002130  73.8736 286.2695 14.34218599430564
IRIDIUM 116             
1 43072U 17083C   26073.53911102  .00000221  00000+0  71936-4 0  9999
2 43072  86.4025   1.5567 0002204  92.6276 267.5172 14.34218571430606
IRIDIUM 130             
1 43073U 17083D   26073.50739689  .00000063  00000+0  15521-4 0  9997
2 43073  86.4035   1.8357 0001934  91.8288 268.3129 14.34218198430540
