[{"OBJECT_NAME":"IRIDIUM 124","OBJECT_ID":"2017-039H","EPOCH":"2026-03-14T14:58:40.230336","MEAN_MOTION":14.43278996,"ECCENTRICITY":0.0002064,"INCLINATION":86.4527,"RA_OF_ASC_NODE":329.9155,"ARG_OF_PERICENTER":85.7117,"MEAN_ANOMALY":274.432,"EPHEMERIS_TYPE":0,"CLASSIFICATION_TYPE":"U","NORAD_CAT_ID":42810,"ELEMENT_SET_NO":999,"REV_AT_EPOCH":46147,"BSTAR":0.00012295375,"MEAN_MOTION_DOT":4.34e-6,"MEAN_MOTION_DDOT":0},{"OBJECT_NAME":"IRIDIUM 128","OBJECT_ID":"2017-039J","EPOCH":"2026-03-14T11:07:26.709312","MEAN_MOTION":14.34217631,"ECCENTRICITY":0.00021638,"INCLINATION":86.3918,"RA_OF_ASC_NODE":64.7459,"ARG_OF_PERICENTER":94.5799,"MEAN_ANOMALY":265.5644,"EPHEMERIS_TYPE":0,"CLASSIFICATION_TYPE":"U","NORAD_CAT_ID":42811,"ELEMENT_SET_NO":999,"REV_AT_EPOCH":45640,"BSTAR":8.510551e-6,"MEAN_MOTION_DOT":4.4e-7,"MEAN_MOTION_DDOT":0},{"OBJECT_NAME":"IRIDIUM 121","OBJECT_ID":"2017-039K","EPOCH":"2026-03-14T08:27:14.996160","MEAN_MOTION":14.34217245,"ECCENTRICITY":0.00021547,"INCLINATION":86.3984,"RA_OF_ASC_NODE":33.289,"ARG_OF_PERICENTER":88.0944,"MEAN_ANOMALY":272.0498,"EPHEMERIS_TYPE":0,"CLASSIFICATION_TYPE":"U","NORAD_CAT_ID":42812,"ELEMENT_SET_NO":999,"REV_AT_EPOCH":45623,"BSTAR":-2.0790856e-5,"MEAN_MOTION_DOT":-3.8e-7,"MEAN_MOTION_DDOT":0},{"OBJECT_NAME":"IRIDIUM 133","OBJECT_ID":"2017-061A","EPOCH":"2026-03-14T11:53:06.695232","MEAN_MOTION":14.34217904,"ECCENTRICITY":0.00021734,"INCLINATION":86.392,"RA_OF_ASC_NODE":64.8481,"ARG_OF_PERICENTER":90.2742,"MEAN_ANOMALY":269.8703,"EPHEMERIS_TYPE":0,"CLASSIFICATION_TYPE":"U","NORAD_CAT_ID":42955,"ELEMENT_SET_NO":999,"REV_AT_EPOCH":44120,"BSTAR":2.0367142e-5,"MEAN_MOTION_DOT":7.7e-7,"MEAN_MOTION_DDOT":0},{"OBJECT_NAME":"IRIDIUM 100","OBJECT_ID":"2017-061B","EPOCH":"2026-03-14T11:43:58.674720","MEAN_MOTION":14.34217688,"ECCENTRICITY":0.00021393,"INCLINATION":86.3918,"RA_OF_ASC_NODE":64.7716,"ARG_OF_PERICENTER":89.197,"MEAN_ANOMALY":270.9471,"EPHEMERIS_TYPE":0,"CLASSIFICATION_TYPE":"U","NORAD_CAT_ID":42956,"ELEMENT_SET_NO":999,"REV_AT_EPOCH":44120,"BSTAR":7.324958e-6,"MEAN_MOTION_DOT":4.0e-7,"MEAN_MOTION_DDOT":0},{"OBJECT_NAME":"IRIDIUM 122","OBJECT_ID":"2017-061C","EPOCH":"2026-03-14T10:58:18.539328","MEAN_MOTION":14.3421759,"ECCENTRICITY":0.00020699,"INCLINATION":86.3915,"RA_OF_ASC_NODE":64.7847,"ARG_OF_PERICENTER":87.9993,"MEAN_ANOMALY":272.144,"EPHEMERIS_TYPE":0,"CLASSIFICATION_TYPE":"U","NORAD_CAT_ID":42957,"ELEMENT_SET_NO":999,"REV_AT_EPOCH":44120,"BSTAR":8.732041e-6,"MEAN_MOTION_DOT":4.4e-7,"MEAN_MOTION_DDOT":0},{"OBJECT_NAME":"IRIDIUM 129","OBJECT_ID":"2017-061D","EPOCH":"2026-03-14T11:34:50.630880","MEAN_MOTION":14.34218072,"ECCENTRICITY":0.00024118,"INCLINATION":86.3919,"RA_OF_ASC_NODE":64.8404,"ARG_OF_PERICENTER":82.7132,"MEAN_ANOMALY":277.4337,"EPHEMERIS_TYPE":0,"CLASSIFICATION_TYPE":"U","NORAD_CAT_ID":42958,"ELEMENT_SET_NO":999,"REV_AT_EPOCH":44122,"BSTAR":2.160486e-5,"MEAN_MOTION_DOT":8.0e-7,"MEAN_MOTION_DDOT":0},{"OBJECT_NAME":"IRIDIUM 119","OBJECT_ID":"2017-061E","EPOCH":"2026-03-14T12:29:38.160384","MEAN_MOTION":14.34219998,"ECCENTRICITY":0.00021423,"INCLINATION":86.3919,"RA_OF_ASC_NODE":64.8196,"ARG_OF_PERICENTER":84.9325,"MEAN_ANOMALY":275.2115,"EPHEMERIS_TYPE":0,"CLASSIFICATION_TYPE":"U","NORAD_CAT_ID":42959,"ELEMENT_SET_NO":999,"REV_AT_EPOCH":44124,"BSTAR":6.2984413e-5,"MEAN_MOTION_DOT":1.96e-6,"MEAN_MOTION_DDOT":0},{"OBJECT_NAME":"IRIDIUM 107","OBJECT_ID":"2017-061F","EPOCH":"2026-03-14T11:16:34.568256","MEAN_MOTION":14.34217538,"ECCENTRICITY":0.00017459,"INCLINATION":86.3919,"RA_OF_ASC_NODE":64.8619,"ARG_OF_PERICENTER":90.8246,"MEAN_ANOMALY":269.3149,"EPHEMERIS_TYPE":0,"CLASSIFICATION_TYPE":"U","NORAD_CAT_ID":42960,"ELEMENT_SET_NO":999,"REV_AT_EPOCH":44124,"BSTAR":-3.174869e-6,"MEAN_MOTION_DOT":1.1e-7,"MEAN_MOTION_DDOT":0},{"OBJECT_NAME":"IRIDIUM 132","OBJECT_ID":"2017-061G","EPOCH":"2026-03-14T13:06:10.619136","MEAN_MOTION":14.34217921,"ECCENTRICITY":0.00021341,"INCLINATION":86.3919,"RA_OF_ASC_NODE":64.8099,"ARG_OF_PERICENTER":90.5328,"MEAN_ANOMALY":269.6112,"EPHEMERIS_TYPE":0,"CLASSIFICATION_TYPE":"U","NORAD_CAT_ID":42961,"ELEMENT_SET_NO":999,"REV_AT_EPOCH":44125,"BSTAR":2.1241889e-5,"MEAN_MOTION_DOT":7.9e-7,"MEAN_MOTION_DDOT":0},{"OBJECT_NAME":"IRIDIUM 136","OBJECT_ID":"2017-061H","EPOCH":"2026-03-14T12:11:22.641216","MEAN_MOTION":14.34217515,"ECCENTRICITY":0.00020013,"INCLINATION":86.3922,"RA_OF_ASC_NODE":64.8324,"ARG_OF_PERICENTER":86.6589,"MEAN_ANOMALY":273.4836,"EPHEMERIS_TYPE":0,"CLASSIFICATION_TYPE":"U","NORAD_CAT_ID":42962,"ELEMENT_SET_NO":999,"REV_AT_EPOCH":44126,"BSTAR":-3.57899e-6,"MEAN_MOTION_DOT":1.0e-7,"MEAN_MOTION_DDOT":0},{"OBJECT_NAME":"IRIDIUM 139","OBJECT_ID":"2017-061J","EPOCH":"2026-03-14T10:40:02.685792","MEAN_MOTION":14.34217772,"ECCENTRICITY":0.00021394,"INCLINATION":86.3922,"RA_OF_ASC_NODE":64.9192,"ARG_OF_PERICENTER":90.7702,"MEAN_ANOMALY":269.3739,"EPHEMERIS_TYPE":0,"CLASSIFICATION_TYPE":"U","NORAD_CAT_ID":42963,"ELEMENT_SET_NO":999,"REV_AT_EPOCH":44126,"BSTAR":5.302813e-6,"MEAN_MOTION_DOT":3.5e-7,"MEAN_MOTION_DDOT":0},{"OBJECT_NAME":"IRIDIUM 125","OBJECT_ID":"2017-061K","EPOCH":"2026-03-14T12:02:14.533440","MEAN_MOTION":14.34217724,"ECCENTRICITY":0.00017293,"INCLINATION":86.3925,"RA_OF_ASC_NODE":64.9548,"ARG_OF_PERICENTER":77.6511,"MEAN_ANOMALY":282.4878,"EPHEMERIS_TYPE":0,"CLASSIFICATION_TYPE":"U","NORAD_CAT_ID":42964,"ELEMENT_SET_NO":999,"REV_AT_EPOCH":44128,"BSTAR":3.821214e-6,"MEAN_MOTION_DOT":3.0e-7,"MEAN_MOTION_DDOT":0},{"OBJECT_NAME":"IRIDIUM 135","OBJECT_ID":"2017-083A","EPOCH":"2026-03-14T08:04:02.902080","MEAN_MOTION":14.34216278,"ECCENTRICITY":0.00021914,"INCLINATION":86.4028,"RA_OF_ASC_NODE":1.6542,"ARG_OF_PERICENTER":85.2174,"MEAN_ANOMALY":274.9272,"EPHEMERIS_TYPE":0,"CLASSIFICATION_TYPE":"U","NORAD_CAT_ID":43070,"ELEMENT_SET_NO":999,"REV_AT_EPOCH":43055,"BSTAR":2.1724657e-5,"MEAN_MOTION_DOT":8.1e-7,"MEAN_MOTION_DDOT":0},{"OBJECT_NAME":"IRIDIUM 138","OBJECT_ID":"2017-083B","EPOCH":"2026-03-14T12:01:31.108800","MEAN_MOTION":14.34218599,"ECCENTRICITY":0.00021308,"INCLINATION":86.4042,"RA_OF_ASC_NODE":1.2666,"ARG_OF_PERICENTER":73.8736,"MEAN_ANOMALY":286.2695,"EPHEMERIS_TYPE":0,"CLASSIFICATION_TYPE":"U","NORAD_CAT_ID":43071,"ELEMENT_SET_NO":999,"REV_AT_EPOCH":43056,"BSTAR":4.6785754e-5,"MEAN_MOTION_DOT":1.51e-6,"MEAN_MOTION_DDOT":0},{"OBJECT_NAME":"IRIDIUM 116","OBJECT_ID":"2017-083C","EPOCH":"2026-03-14T12:56:19.192128","MEAN_MOTION":14.34218571,"ECCENTRICITY":0.00022045,"INCLINATION":86.4025,"RA_OF_ASC_NODE":1.5567,"ARG_OF_PERICENTER":92.6276,"MEAN_ANOMALY":267.5172,"EPHEMERIS_TYPE":0,"CLASSIFICATION_TYPE":"U","NORAD_CAT_ID":43072,"ELEMENT_SET_NO":999,"REV_AT_EPOCH":43060,"BSTAR":7.1935737e-5,"MEAN_MOTION_DOT":2.21e-6,"MEAN_MOTION_DDOT":0},{"OBJECT_NAME":"IRIDIUM 130","OBJECT_ID":"2017-083D","EPOCH":"2026-03-14T12:10:39.091296","MEAN_MOTION":14.34218198,"ECCENTRICITY":0.0001934,"INCLINATION":86.4035,"RA_OF_ASC_NODE":1.8357,"ARG_OF_PERICENTER":91.8288,"MEAN_ANOMALY":268.3129,"EPHEMERIS_TYPE":0,"CLASSIFICATION_TYPE":"U","NORAD_CAT_ID":43073,"ELEMENT_SET_NO":999,"REV_AT_EPOCH":43054,"BSTAR":1.5521205e-5,"MEAN_MOTION_DOT":6.3e-7,"MEAN_MOTION_DDOT":0}]
